[{"OBJECT_NAME":"ONEWEB-0533","OBJECT_ID":"2023-004B","EPOCH":"2026-01-23T10:54:13.133088","MEAN_MOTION":13.12441618,"ECCENTRICITY":0.00019036,"INCLINATION":87.894,"RA_OF_ASC_NODE":19.3994,"ARG_OF_PERICENTER":83.3953,"MEAN_ANOMALY":276.7392,"EPHEMERIS_TYPE":0,"CLASSIFICATION_TYPE":"U","NORAD_CAT_ID":55141,"ELEMENT_SET_NO":999,"REV_AT_EPOCH":14907,"BSTAR":-4.0849798e-5,"MEAN_MOTION_DOT":-2.0e-8,"MEAN_MOTION_DDOT":0},{"OBJECT_NAME":"ONEWEB-0541","OBJECT_ID":"2023-004C","EPOCH":"2026-01-23T10:44:08.909376","MEAN_MOTION":13.11417543,"ECCENTRICITY":0.00018553,"INCLINATION":87.882,"RA_OF_ASC_NODE":49.8585,"ARG_OF_PERICENTER":98.0339,"MEAN_ANOMALY":262.1,"EPHEMERIS_TYPE":0,"CLASSIFICATION_TYPE":"U","NORAD_CAT_ID":55142,"ELEMENT_SET_NO":999,"REV_AT_EPOCH":14697,"BSTAR":0.0014478301,"MEAN_MOTION_DOT":5.26e-6,"MEAN_MOTION_DDOT":0},{"OBJECT_NAME":"ONEWEB-0543","OBJECT_ID":"2023-004D","EPOCH":"2026-01-23T11:12:58.566528","MEAN_MOTION":13.18685529,"ECCENTRICITY":0.0001612,"INCLINATION":87.9178,"RA_OF_ASC_NODE":4.2189,"ARG_OF_PERICENTER":78.6354,"MEAN_ANOMALY":281.4959,"EPHEMERIS_TYPE":0,"CLASSIFICATION_TYPE":"U","NORAD_CAT_ID":55143,"ELEMENT_SET_NO":999,"REV_AT_EPOCH":15062,"BSTAR":-7.00671e-7,"MEAN_MOTION_DOT":1.3e-7,"MEAN_MOTION_DDOT":0},{"OBJECT_NAME":"ONEWEB-0544","OBJECT_ID":"2023-004E","EPOCH":"2026-01-23T11:03:27.630144","MEAN_MOTION":13.18687754,"ECCENTRICITY":0.00015991,"INCLINATION":87.9185,"RA_OF_ASC_NODE":4.2132,"ARG_OF_PERICENTER":89.996,"MEAN_ANOMALY":270.1356,"EPHEMERIS_TYPE":0,"CLASSIFICATION_TYPE":"U","NORAD_CAT_ID":55144,"ELEMENT_SET_NO":999,"REV_AT_EPOCH":15062,"BSTAR":1.02572e-6,"MEAN_MOTION_DOT":1.3e-7,"MEAN_MOTION_DDOT":0},{"OBJECT_NAME":"ONEWEB-0560","OBJECT_ID":"2023-004F","EPOCH":"2026-01-23T10:53:58.427808","MEAN_MOTION":13.18686093,"ECCENTRICITY":0.00015717,"INCLINATION":87.919,"RA_OF_ASC_NODE":4.203,"ARG_OF_PERICENTER":86.8508,"MEAN_ANOMALY":273.2804,"EPHEMERIS_TYPE":0,"CLASSIFICATION_TYPE":"U","NORAD_CAT_ID":55145,"ELEMENT_SET_NO":999,"REV_AT_EPOCH":15063,"BSTAR":6.5905021e-5,"MEAN_MOTION_DOT":3.9e-7,"MEAN_MOTION_DDOT":0},{"OBJECT_NAME":"ONEWEB-0565","OBJECT_ID":"2023-004G","EPOCH":"2026-01-23T10:44:28.425408","MEAN_MOTION":13.18685784,"ECCENTRICITY":0.00017525,"INCLINATION":87.9179,"RA_OF_ASC_NODE":4.2462,"ARG_OF_PERICENTER":101.729,"MEAN_ANOMALY":258.4039,"EPHEMERIS_TYPE":0,"CLASSIFICATION_TYPE":"U","NORAD_CAT_ID":55146,"ELEMENT_SET_NO":999,"REV_AT_EPOCH":15062,"BSTAR":0.0002741836,"MEAN_MOTION_DOT":1.21e-6,"MEAN_MOTION_DDOT":0},{"OBJECT_NAME":"ONEWEB-0567","OBJECT_ID":"2023-004H","EPOCH":"2026-01-23T10:34:58.235520","MEAN_MOTION":13.18685869,"ECCENTRICITY":0.00016088,"INCLINATION":87.9188,"RA_OF_ASC_NODE":4.2178,"ARG_OF_PERICENTER":97.1052,"MEAN_ANOMALY":263.0263,"EPHEMERIS_TYPE":0,"CLASSIFICATION_TYPE":"U","NORAD_CAT_ID":55147,"ELEMENT_SET_NO":999,"REV_AT_EPOCH":15062,"BSTAR":9.5043579e-5,"MEAN_MOTION_DOT":5.0e-7,"MEAN_MOTION_DDOT":0},{"OBJECT_NAME":"ONEWEB-0569","OBJECT_ID":"2023-004J","EPOCH":"2026-01-23T10:09:12.060000","MEAN_MOTION":13.1347191,"ECCENTRICITY":9.507e-5,"INCLINATION":87.9022,"RA_OF_ASC_NODE":348.9797,"ARG_OF_PERICENTER":101.7478,"MEAN_ANOMALY":258.3758,"EPHEMERIS_TYPE":0,"CLASSIFICATION_TYPE":"U","NORAD_CAT_ID":55148,"ELEMENT_SET_NO":999,"REV_AT_EPOCH":15117,"BSTAR":0.00013422746,"MEAN_MOTION_DOT":6.2e-7,"MEAN_MOTION_DDOT":0},{"OBJECT_NAME":"ONEWEB-0570","OBJECT_ID":"2023-004K","EPOCH":"2026-01-23T10:20:42.408960","MEAN_MOTION":13.18687393,"ECCENTRICITY":0.00022044,"INCLINATION":87.9187,"RA_OF_ASC_NODE":4.219,"ARG_OF_PERICENTER":95.0402,"MEAN_ANOMALY":265.0982,"EPHEMERIS_TYPE":0,"CLASSIFICATION_TYPE":"U","NORAD_CAT_ID":55149,"ELEMENT_SET_NO":999,"REV_AT_EPOCH":15061,"BSTAR":0.0002111235,"MEAN_MOTION_DOT":9.6e-7,"MEAN_MOTION_DDOT":0},{"OBJECT_NAME":"ONEWEB-0571","OBJECT_ID":"2023-004L","EPOCH":"2026-01-23T12:00:29.118528","MEAN_MOTION":13.18687285,"ECCENTRICITY":0.00015863,"INCLINATION":87.9184,"RA_OF_ASC_NODE":4.2039,"ARG_OF_PERICENTER":127.5471,"MEAN_ANOMALY":232.5805,"EPHEMERIS_TYPE":0,"CLASSIFICATION_TYPE":"U","NORAD_CAT_ID":55150,"ELEMENT_SET_NO":999,"REV_AT_EPOCH":15063,"BSTAR":0.00033283033,"MEAN_MOTION_DOT":1.44e-6,"MEAN_MOTION_DDOT":0},{"OBJECT_NAME":"ONEWEB-0572","OBJECT_ID":"2023-004M","EPOCH":"2026-01-23T11:32:59.480736","MEAN_MOTION":13.17651114,"ECCENTRICITY":0.00018099,"INCLINATION":87.9085,"RA_OF_ASC_NODE":34.6247,"ARG_OF_PERICENTER":97.5073,"MEAN_ANOMALY":262.6264,"EPHEMERIS_TYPE":0,"CLASSIFICATION_TYPE":"U","NORAD_CAT_ID":55151,"ELEMENT_SET_NO":999,"REV_AT_EPOCH":14842,"BSTAR":0.00018206992,"MEAN_MOTION_DOT":8.4e-7,"MEAN_MOTION_DDOT":0},{"OBJECT_NAME":"ONEWEB-0573","OBJECT_ID":"2023-004N","EPOCH":"2026-01-23T11:50:57.861600","MEAN_MOTION":13.18687685,"ECCENTRICITY":0.00020427,"INCLINATION":87.9184,"RA_OF_ASC_NODE":4.2082,"ARG_OF_PERICENTER":109.1861,"MEAN_ANOMALY":250.9493,"EPHEMERIS_TYPE":0,"CLASSIFICATION_TYPE":"U","NORAD_CAT_ID":55152,"ELEMENT_SET_NO":999,"REV_AT_EPOCH":15062,"BSTAR":9.1181639e-5,"MEAN_MOTION_DOT":4.9e-7,"MEAN_MOTION_DDOT":0},{"OBJECT_NAME":"ONEWEB-0588","OBJECT_ID":"2023-004P","EPOCH":"2026-01-23T15:19:59.534400","MEAN_MOTION":13.18687378,"ECCENTRICITY":0.00020787,"INCLINATION":87.9188,"RA_OF_ASC_NODE":4.1782,"ARG_OF_PERICENTER":96.0788,"MEAN_ANOMALY":264.0581,"EPHEMERIS_TYPE":0,"CLASSIFICATION_TYPE":"U","NORAD_CAT_ID":55153,"ELEMENT_SET_NO":999,"REV_AT_EPOCH":15064,"BSTAR":0.00035552336,"MEAN_MOTION_DOT":1.53e-6,"MEAN_MOTION_DDOT":0},{"OBJECT_NAME":"ONEWEB-0598","OBJECT_ID":"2023-004Q","EPOCH":"2026-01-23T12:02:16.609632","MEAN_MOTION":13.1141922,"ECCENTRICITY":0.00014119,"INCLINATION":87.8819,"RA_OF_ASC_NODE":49.8718,"ARG_OF_PERICENTER":110.5098,"MEAN_ANOMALY":249.6182,"EPHEMERIS_TYPE":0,"CLASSIFICATION_TYPE":"U","NORAD_CAT_ID":55154,"ELEMENT_SET_NO":999,"REV_AT_EPOCH":14693,"BSTAR":0.00040002694,"MEAN_MOTION_DOT":1.54e-6,"MEAN_MOTION_DDOT":0},{"OBJECT_NAME":"ONEWEB-0599","OBJECT_ID":"2023-004R","EPOCH":"2026-01-23T12:26:26.701440","MEAN_MOTION":13.17651467,"ECCENTRICITY":0.00016186,"INCLINATION":87.9087,"RA_OF_ASC_NODE":34.6168,"ARG_OF_PERICENTER":91.2522,"MEAN_ANOMALY":268.8795,"EPHEMERIS_TYPE":0,"CLASSIFICATION_TYPE":"U","NORAD_CAT_ID":55155,"ELEMENT_SET_NO":999,"REV_AT_EPOCH":14843,"BSTAR":1.1539736e-5,"MEAN_MOTION_DOT":1.7e-7,"MEAN_MOTION_DDOT":0},{"OBJECT_NAME":"ONEWEB-0614","OBJECT_ID":"2023-004S","EPOCH":"2026-01-23T11:54:57.336480","MEAN_MOTION":13.1141861,"ECCENTRICITY":0.00021759,"INCLINATION":87.8817,"RA_OF_ASC_NODE":49.8815,"ARG_OF_PERICENTER":94.1474,"MEAN_ANOMALY":265.9902,"EPHEMERIS_TYPE":0,"CLASSIFICATION_TYPE":"U","NORAD_CAT_ID":55156,"ELEMENT_SET_NO":999,"REV_AT_EPOCH":14687,"BSTAR":-0.00030538571,"MEAN_MOTION_DOT":-9.6e-7,"MEAN_MOTION_DDOT":0},{"OBJECT_NAME":"ONEWEB-0616","OBJECT_ID":"2023-004T","EPOCH":"2026-01-23T11:37:51.554208","MEAN_MOTION":13.17650605,"ECCENTRICITY":0.00012759,"INCLINATION":87.9093,"RA_OF_ASC_NODE":34.6194,"ARG_OF_PERICENTER":59.9643,"MEAN_ANOMALY":300.1615,"EPHEMERIS_TYPE":0,"CLASSIFICATION_TYPE":"U","NORAD_CAT_ID":55157,"ELEMENT_SET_NO":999,"REV_AT_EPOCH":14864,"BSTAR":0.00011413037,"MEAN_MOTION_DOT":5.7e-7,"MEAN_MOTION_DDOT":0}]
