ONEWEB-0533             
1 55141U 23004B   26023.45431867 -.00000002  00000+0 -40850-4 0  9990
2 55141  87.8940  19.3994 0001903  83.3953 276.7392 13.12441618149071
ONEWEB-0541             
1 55142U 23004C   26023.44732534  .00000526  00000+0  14478-2 0  9999
2 55142  87.8820  49.8585 0001855  98.0339 262.1000 13.11417543146970
ONEWEB-0543             
1 55143U 23004D   26023.46734452  .00000013  00000+0 -70067-6 0  9995
2 55143  87.9178   4.2189 0001612  78.6354 281.4959 13.18685529150627
ONEWEB-0544             
1 55144U 23004E   26023.46073646  .00000013  00000+0  10257-5 0  9990
2 55144  87.9185   4.2132 0001599  89.9960 270.1356 13.18687754150624
ONEWEB-0560             
1 55145U 23004F   26023.45414847  .00000039  00000+0  65905-4 0  9999
2 55145  87.9190   4.2030 0001571  86.8508 273.2804 13.18686093150630
ONEWEB-0565             
1 55146U 23004G   26023.44755122  .00000121  00000+0  27418-3 0  9991
2 55146  87.9179   4.2462 0001752 101.7290 258.4039 13.18685784150623
ONEWEB-0567             
1 55147U 23004H   26023.44095180  .00000050  00000+0  95044-4 0  9995
2 55147  87.9188   4.2178 0001608  97.1052 263.0263 13.18685869150627
ONEWEB-0569             
1 55148U 23004J   26023.42305625  .00000062  00000+0  13423-3 0  9995
2 55148  87.9022 348.9797 0000950 101.7478 258.3758 13.13471910151175
ONEWEB-0570             
1 55149U 23004K   26023.43104640  .00000096  00000+0  21112-3 0  9992
2 55149  87.9187   4.2190 0002204  95.0402 265.0982 13.18687393150614
ONEWEB-0571             
1 55150U 23004L   26023.50033702  .00000144  00000+0  33283-3 0  9998
2 55150  87.9184   4.2039 0001586 127.5471 232.5805 13.18687285150639
ONEWEB-0572             
1 55151U 23004M   26023.48124399  .00000084  00000+0  18207-3 0  9991
2 55151  87.9085  34.6247 0001809  97.5073 262.6264 13.17651114148428
ONEWEB-0573             
1 55152U 23004N   26023.49372525  .00000049  00000+0  91182-4 0  9994
2 55152  87.9184   4.2082 0002042 109.1861 250.9493 13.18687685150626
ONEWEB-0588             
1 55153U 23004P   26023.63888350  .00000153  00000+0  35552-3 0  9993
2 55153  87.9188   4.1782 0002078  96.0788 264.0581 13.18687378150643
ONEWEB-0598             
1 55154U 23004Q   26023.50158113  .00000154  00000+0  40003-3 0  9995
2 55154  87.8819  49.8718 0001411 110.5098 249.6182 13.11419220146930
ONEWEB-0599             
1 55155U 23004R   26023.51836460  .00000017  00000+0  11540-4 0  9998
2 55155  87.9087  34.6168 0001618  91.2522 268.8795 13.17651467148433
ONEWEB-0614             
1 55156U 23004S   26023.49649695 -.00000096  00000+0 -30539-3 0  9995
2 55156  87.8817  49.8815 0002175  94.1474 265.9902 13.11418610146877
ONEWEB-0616             
1 55157U 23004T   26023.48462447  .00000057  00000+0  11413-3 0  9998
2 55157  87.9093  34.6194 0001275  59.9643 300.1615 13.17650605148642
